[{"OBJECT_NAME":"COSMOS 2503","OBJECT_ID":"2015-009A","EPOCH":"2026-03-09T16:42:37.703808","MEAN_MOTION":15.06275973,"ECCENTRICITY":0.00153206,"INCLINATION":97.8437,"RA_OF_ASC_NODE":123.7175,"ARG_OF_PERICENTER":225.745,"MEAN_ANOMALY":134.252,"EPHEMERIS_TYPE":0,"CLASSIFICATION_TYPE":"U","NORAD_CAT_ID":40420,"ELEMENT_SET_NO":999,"REV_AT_EPOCH":60395,"BSTAR":0.00019589832,"MEAN_MOTION_DOT":2.817e-5,"MEAN_MOTION_DDOT":0},{"OBJECT_NAME":"STARLINK-5581","OBJECT_ID":"2023-013AU","EPOCH":"2026-03-09T09:34:16.326912","MEAN_MOTION":15.02526345,"ECCENTRICITY":0.00010596,"INCLINATION":43.0042,"RA_OF_ASC_NODE":315.0685,"ARG_OF_PERICENTER":243.296,"MEAN_ANOMALY":116.7774,"EPHEMERIS_TYPE":0,"CLASSIFICATION_TYPE":"U","NORAD_CAT_ID":55373,"ELEMENT_SET_NO":999,"REV_AT_EPOCH":17151,"BSTAR":0.00010227581,"MEAN_MOTION_DOT":1.178e-5,"MEAN_MOTION_DDOT":0}]
